NORAD_CAT_ID,OBJECT_NAME,OBJECT_TYPE,EPOCH,MEAN_MOTION,ECCENTRICITY,INCLINATION,RA_OF_ASC_NODE,ARG_OF_PERICENTER,MEAN_ANOMALY,BSTAR,MEAN_MOTION_DOT,MEAN_MOTION_DDOT,TLE_LINE0,TLE_LINE1,TLE_LINE2,SEMIMAJOR_AXIS,PERIOD,APOGEE,PERIGEE,DECAYED
52588.0,STARLINK-3917,PAYLOAD,2022-07-17 14:00:01,15.36663714,0.0001564999999999,53.2176,335.73800000000006,53.1684,173.0942,-0.03191,-0.0106469,0.0,0 STARLINK-3917,1 52588U 22051BE  22198.58334491 -.01064690  00000-0 -31910-1 0  9990,2 52588  53.2176 335.7380 0001565  53.1684 173.0942 15.36663714 10680,6834.12,93.71,457.055,454.916,0.0
52588.0,STARLINK-3917,PAYLOAD,2022-07-17 22:00:00,15.35908095,0.0001471,53.2171,334.1814,51.0817,219.743,-0.032902,-0.01070697,0.0,0 STARLINK-3917,1 52588U 22051BE  22198.91667824 -.01070697  00000-0 -32902-1 0  9992,2 52588  53.2171 334.1814 0001471  51.0817 219.7430 15.35908095  1303,6836.361999999999,93.756,459.232,457.221,0.0
52588.0,STARLINK-3917,PAYLOAD,2022-07-18 14:00:01,15.34387508,0.0001592,53.2175,331.0727,39.3877,317.8273,-0.034456,-0.01068028,0.0,0 STARLINK-3917,1 52588U 22051BE  22199.58334491 -.01068028  00000-0 -34456-1 0  9998,2 52588  53.2175 331.0727 0001592  39.3877 317.8273 15.34387508  1309,6840.877,93.849,463.831,461.653,0.0
52588.0,STARLINK-3917,PAYLOAD,2022-07-18 16:00:00,15.34198789,0.0001796,53.2174,330.6851,38.5107,59.2457,-0.034741,-0.01070238,0.0,0 STARLINK-3917,1 52588U 22051BE  22199.66667824 -.01070238  00000-0 -34741-1 0  9999,2 52588  53.2174 330.6851 0001796  38.5107  59.2457 15.34198789 10856,6841.438,93.86,464.532,462.075,0.0
52588.0,STARLINK-3917,PAYLOAD,2022-07-18 22:00:00,15.33628398,0.0001291,53.2172,329.5215,54.2254,344.815,-0.035302,-0.01067991,0.0,0 STARLINK-3917,1 52588U 22051BE  22199.91667824 -.01067991  00000-0 -35302-1 0  9993,2 52588  53.2172 329.5215 0001291  54.2254 344.8150 15.33628398  1309,6843.135,93.895,465.883,464.116,0.0
52588.0,STARLINK-3917,PAYLOAD,2022-07-19 14:00:01,15.32108016,0.0001704,53.2173,326.4237,43.9014,76.0536,-0.036988,-0.01066587,0.0,0 STARLINK-3917,1 52588U 22051BE  22200.58334491 -.01066587  00000-0 -36988-1 0  9991,2 52588  53.2173 326.4237 0001704  43.9014  76.0536 15.32108016 10994,6847.661,93.988,470.693,468.359,0.0
52588.0,STARLINK-3917,PAYLOAD,2022-07-19 22:00:00,15.31348944,0.0001582,53.2173,324.8776,51.2459,107.7967,-0.037885,-0.01066641,0.0,0 STARLINK-3917,1 52588U 22051BE  22200.91667824 -.01066641  00000-0 -37885-1 0  9995,2 52588  53.2173 324.8776 0001582  51.2459 107.7967 15.31348944  1303,6849.924,94.035,472.872,470.705,0.0
52588.0,STARLINK-3917,PAYLOAD,2022-07-20 14:00:01,15.29827717,0.0001698,53.2174,321.7909,47.4744,187.0066,-0.039591,-0.01063272,0.0,0 STARLINK-3917,1 52588U 22051BE  22201.58334491 -.01063272  00000-0 -39591-1 0  9993,2 52588  53.2174 321.7909 0001698  47.4744 187.0066 15.29827717  1308,6854.464,94.128,477.49300000000005,475.165,0.0
52588.0,STARLINK-3917,PAYLOAD,2022-07-20 22:00:01,15.29072149,0.0001367,53.2172,320.2499,61.88,209.0134,-0.040801,-0.01069738,0.0,0 STARLINK-3917,1 52588U 22051BE  22201.91668981 -.01069738  00000-0 -40801-1 0  9993,2 52588  53.2172 320.2499 0001367  61.8800 209.0134 15.29072149  1302,6856.722,94.175,479.524,477.649,0.0
52588.0,STARLINK-3917,PAYLOAD,2022-07-21 08:00:01,15.28119218,0.000151,53.2175,318.3252,45.7645,359.2208,-0.041734,-0.01063118,0.0,0 STARLINK-3917,1 52588U 22051BE  22202.33334491 -.01063118  00000-0 -41734-1 0  9998,2 52588  53.2175 318.3252 0001510  45.7645 359.2208 15.28119218 11262,6859.571999999999,94.233,482.473,480.401,0.0
52588.0,STARLINK-3917,PAYLOAD,2022-07-21 14:00:01,15.27551258,0.0001674,53.2173,317.1740000000001,38.7351,302.1202,-0.042602,-0.01066226,0.0,0 STARLINK-3917,1 52588U 22051BE  22202.58335648 -.01066226  00000-0 -42602-1 0  9998,2 52588  53.2173 317.1740 0001674  38.7351 302.1202 15.27551258  1304,6861.272,94.269,484.286,481.989,0.0
52588.0,STARLINK-3917,PAYLOAD,2022-07-21 22:00:00,15.26793068,0.0001682,53.2173,315.6383,35.4979,338.9055,-0.043698,-0.01068394,0.0,0 STARLINK-3917,1 52588U 22051BE  22202.91667824 -.01068394  00000-0 -43698-1 0  9993,2 52588  53.2173 315.6383 0001682  35.4979 338.9055 15.26793068  1308,6863.543000000002,94.315,486.56300000000016,484.254,0.0
52588.0,STARLINK-3917,PAYLOAD,2022-07-22 06:00:00,15.26030202,0.0001533,53.2173,314.1032,44.0668,3.0379,-0.044487,-0.01063149,0.0,0 STARLINK-3917,1 52588U 22051BE  22203.25001157 -.01063149  00000-0 -44487-1 0  9992,2 52588  53.2173 314.1032 0001533  44.0668   3.0379 15.26030202 11404,6865.831,94.362,488.74800000000016,486.643,0.0
52588.0,STARLINK-3917,PAYLOAD,2022-07-22 22:00:00,15.24512474,0.000178,53.2173,311.0428,38.8761,70.8877,-0.046638,-0.01064496,0.0,0 STARLINK-3917,1 52588U 22051BE  22203.91667824 -.01064496  00000-0 -46638-1 0  9990,2 52588  53.2173 311.0428 0001780  38.8761  70.8877 15.24512474  1305,6870.387,94.456,493.475,491.029,0.0
52588.0,STARLINK-3917,PAYLOAD,2022-07-23 08:00:01,15.23562909,0.0001551999999999,53.2175,309.1319,57.2185,179.8544,-0.047934,-0.01063384,0.0,0 STARLINK-3917,1 52588U 22051BE  22204.33334491 -.01063384  00000-0 -47934-1 0  9993,2 52588  53.2175 309.1319 0001552  57.2185 179.8544 15.23562909 11563,6873.241,94.515,496.173,494.039,0.0
52588.0,STARLINK-3917,PAYLOAD,2022-07-23 14:00:01,15.22992983,0.0001940999999999,53.2173,307.9886,40.2344,128.6023,-0.0487709999999999,-0.01063737,0.0,0 STARLINK-3917,1 52588U 22051BE  22204.58335648 -.01063737  00000-0 -48771-1 0  9997,2 52588  53.2173 307.9886 0001941  40.2344 128.6023 15.22992983  1300,6874.956,94.551,498.155,495.486,0.0
52588.0,STARLINK-3917,PAYLOAD,2022-07-23 22:00:00,15.22234102,0.0001859,53.2174,306.4633,40.6533,156.2561,-0.049928,-0.01064559,0.0,0 STARLINK-3917,1 52588U 22051BE  22204.91667824 -.01064559  00000-0 -49928-1 0  9996,2 52588  53.2174 306.4633 0001859  40.6533 156.2561 15.22234102  1303,6877.24,94.598,500.384,497.827,0.0
52588.0,STARLINK-3917,PAYLOAD,2022-07-24 14:00:01,15.20713743,0.0001906,53.2174,303.4199,39.6393,210.8036,-0.052088,-0.01062032,0.0,0 STARLINK-3917,1 52588U 22051BE  22205.58334491 -.01062032  00000-0 -52088-1 0  9996,2 52588  53.2174 303.4199 0001906  39.6393 210.8036 15.20713743  1307,6881.823,94.692,505.0,502.377,0.0
52588.0,STARLINK-3917,PAYLOAD,2022-07-24 22:00:00,15.19956516,0.0001631999999999,53.2174,301.8998,45.4009,230.4398,-0.053488,-0.01066155,0.0,0 STARLINK-3917,1 52588U 22051BE  22205.91667824 -.01066155  00000-0 -53488-1 0  9997,2 52588  53.2174 301.8998 0001632  45.4009 230.4398 15.19956516  1305,6884.109,94.74,507.097,504.85,0.0
52588.0,STARLINK-3917,PAYLOAD,2022-07-25 06:00:00,15.19194053,0.0001675999999999,53.2175,300.3811,42.1158,258.2114,-0.054373,-0.01060423,0.0,0 STARLINK-3917,1 52588U 22051BE  22206.25001157 -.01060423  00000-0 -54373-1 0  9992,2 52588  53.2175 300.3811 0001676  42.1158 258.2114 15.19194053 11867,6886.4119999999975,94.787,509.431,507.12300000000016,0.0
52588.0,STARLINK-3917,PAYLOAD,2022-07-25 14:00:01,15.18436324,0.0001747,53.2175,298.8673,39.2785,284.6195,-0.0557649999999999,-0.01077046,0.0,0 STARLINK-3917,1 52588U 22051BE  22206.58334491 -.01077046  00000-0 -55765-1 0  9993,2 52588  53.2175 298.8673 0001747  39.2785 284.6195 15.18436324  1305,6888.703,94.834,511.771,509.364,0.0
52588.0,STARLINK-3917,PAYLOAD,2022-07-25 22:00:00,15.17677871,0.0001594,53.2174,297.3522,41.2965,305.262,-0.0571429999999999,-0.01079463,0.0,0 STARLINK-3917,1 52588U 22051BE  22206.91667824 -.01079463  00000-0 -57143-1 0  9996,2 52588  53.2174 297.3522 0001594  41.2965 305.2620 15.17677871  1300,6890.998000000001,94.882,513.961,511.764,0.0
52588.0,STARLINK-3917,PAYLOAD,2022-07-26 06:00:00,15.16914901,0.0001726,53.2175,295.8392,37.2587,331.0483,-0.058013,-0.01072603,0.0,0 STARLINK-3917,1 52588U 22051BE  22207.25001157 -.01072603  00000-0 -58013-1 0  9991,2 52588  53.2175 295.8392 0001726  37.2587 331.0483 15.16914901 12012,6893.308000000001,94.93,516.363,513.9830000000002,0.0
52588.0,STARLINK-3917,PAYLOAD,2022-07-26 14:00:01,15.1615869,0.0001838,53.2174,294.3305,35.7961,353.3433,-0.0596419999999999,-0.01078587,0.0,0 STARLINK-3917,1 52588U 22051BE  22207.58334491 -.01078587  00000-0 -59642-1 0  9993,2 52588  53.2174 294.3305 0001838  35.7961 353.3433 15.16158690  1309,6895.6,94.977,518.7330000000002,516.198,0.0
52588.0,STARLINK-3917,PAYLOAD,2022-07-26 22:00:00,15.15398386,0.0001733,53.2175,292.8206,37.6901,11.3724,-0.060897,-0.0107765,0.0,0 STARLINK-3917,1 52588U 22051BE  22207.91667824 -.01077650  00000-0 -60897-1 0  9993,2 52588  53.2175 292.8206 0001733  37.6901  11.3724 15.15398386  1303,6897.906,95.025,520.967,518.576,0.0
52588.0,STARLINK-3917,PAYLOAD,2022-07-27 06:00:02,15.14636416,0.000186,53.2175,291.3129,36.3278,31.808000000000003,-0.061923,-0.01072696,0.0,0 STARLINK-3917,1 52588U 22051BE  22208.25002315 -.01072696  00000-0 -61923-1 0  9995,2 52588  53.2175 291.3129 0001860  36.3278  31.8080 15.14636416 12161,6900.22,95.072,523.368,520.8009999999998,0.0
52588.0,STARLINK-3917,PAYLOAD,2022-07-27 14:00:01,15.13879613,0.0001976,53.2175,289.8096,35.6714,50.496,-0.063581,-0.01077666,0.0,0 STARLINK-3917,1 52588U 22051BE  22208.58334491 -.01077666  00000-0 -63581-1 0  9998,2 52588  53.2175 289.8096 0001976  35.6714  50.4960 15.13879613  1306,6902.519,95.12,525.748,523.02,0.0
52588.0,STARLINK-3917,PAYLOAD,2022-07-27 22:00:00,15.13119094,0.0001841999999999,53.2176,288.305,38.753,64.5995,-0.064855,-0.01076009,0.0,0 STARLINK-3917,1 52588U 22051BE  22208.91667824 -.01076009  00000-0 -64855-1 0  9999,2 52588  53.2176 288.3050 0001842  38.7530  64.5995 15.13119094  1307,6904.831999999999,95.168,527.969,525.425,0.0
52588.0,STARLINK-3917,PAYLOAD,2022-07-28 08:00:01,15.1221176,0.0001761999999999,53.2181,286.426,47.8577,165.6703,-0.070258,-0.01131668,0.0,0 STARLINK-3917,1 52588U 22051BE  22209.33334491 -.01131668  00000-0 -70258-1 0  9994,2 52588  53.2181 286.4260 0001762  47.8577 165.6703 15.12211760 12324,6907.593000000003,95.225,530.6759999999998,528.241,0.0
